[{"OBJECT_NAME":"ONEWEB-0549","OBJECT_ID":"2023-043F","EPOCH":"2026-02-27T02:28:39.588672","MEAN_MOTION":13.21825155,"ECCENTRICITY":0.00017768,"INCLINATION":87.9169,"RA_OF_ASC_NODE":265.9396,"ARG_OF_PERICENTER":93.1196,"MEAN_ANOMALY":267.0141,"EPHEMERIS_TYPE":0,"CLASSIFICATION_TYPE":"U","NORAD_CAT_ID":56051,"ELEMENT_SET_NO":999,"REV_AT_EPOCH":14368,"BSTAR":-0.00018116619,"MEAN_MOTION_DOT":-6.2e-7,"MEAN_MOTION_DDOT":0},{"OBJECT_NAME":"ONEWEB-0550","OBJECT_ID":"2023-043G","EPOCH":"2026-02-26T13:26:38.416704","MEAN_MOTION":13.21827271,"ECCENTRICITY":0.0001507,"INCLINATION":87.9167,"RA_OF_ASC_NODE":266.0437,"ARG_OF_PERICENTER":86.7095,"MEAN_ANOMALY":273.4211,"EPHEMERIS_TYPE":0,"CLASSIFICATION_TYPE":"U","NORAD_CAT_ID":56052,"ELEMENT_SET_NO":999,"REV_AT_EPOCH":14361,"BSTAR":-5.4616e-5,"MEAN_MOTION_DOT":-1.0e-7,"MEAN_MOTION_DDOT":0},{"OBJECT_NAME":"ONEWEB-0551","OBJECT_ID":"2023-043H","EPOCH":"2026-02-27T02:24:24.046848","MEAN_MOTION":13.15547756,"ECCENTRICITY":0.00018275,"INCLINATION":87.8948,"RA_OF_ASC_NODE":281.211,"ARG_OF_PERICENTER":94.1236,"MEAN_ANOMALY":266.0103,"EPHEMERIS_TYPE":0,"CLASSIFICATION_TYPE":"U","NORAD_CAT_ID":56053,"ELEMENT_SET_NO":999,"REV_AT_EPOCH":14192,"BSTAR":-4.6195265e-5,"MEAN_MOTION_DOT":-5.0e-8,"MEAN_MOTION_DDOT":0},{"OBJECT_NAME":"ONEWEB-0552","OBJECT_ID":"2023-043J","EPOCH":"2026-02-27T02:02:35.014272","MEAN_MOTION":13.21824971,"ECCENTRICITY":0.00015042,"INCLINATION":87.9166,"RA_OF_ASC_NODE":265.9479,"ARG_OF_PERICENTER":91.8931,"MEAN_ANOMALY":268.2375,"EPHEMERIS_TYPE":0,"CLASSIFICATION_TYPE":"U","NORAD_CAT_ID":56054,"ELEMENT_SET_NO":999,"REV_AT_EPOCH":14368,"BSTAR":0.00012214562,"MEAN_MOTION_DOT":6.3e-7,"MEAN_MOTION_DDOT":0},{"OBJECT_NAME":"ONEWEB-0553","OBJECT_ID":"2023-043K","EPOCH":"2026-02-27T01:29:44.945664","MEAN_MOTION":13.16592767,"ECCENTRICITY":0.00016636,"INCLINATION":87.9001,"RA_OF_ASC_NODE":250.6856,"ARG_OF_PERICENTER":79.0114,"MEAN_ANOMALY":281.1204,"EPHEMERIS_TYPE":0,"CLASSIFICATION_TYPE":"U","NORAD_CAT_ID":56055,"ELEMENT_SET_NO":999,"REV_AT_EPOCH":14448,"BSTAR":7.3970864e-5,"MEAN_MOTION_DOT":4.1e-7,"MEAN_MOTION_DDOT":0},{"OBJECT_NAME":"ONEWEB-0554","OBJECT_ID":"2023-043L","EPOCH":"2026-02-27T01:11:30.399360","MEAN_MOTION":13.16592953,"ECCENTRICITY":0.0001296,"INCLINATION":87.9001,"RA_OF_ASC_NODE":250.6982,"ARG_OF_PERICENTER":86.4075,"MEAN_ANOMALY":273.7204,"EPHEMERIS_TYPE":0,"CLASSIFICATION_TYPE":"U","NORAD_CAT_ID":56056,"ELEMENT_SET_NO":999,"REV_AT_EPOCH":14446,"BSTAR":0.00018787147,"MEAN_MOTION_DOT":8.5e-7,"MEAN_MOTION_DDOT":0},{"OBJECT_NAME":"ONEWEB-0555","OBJECT_ID":"2023-043M","EPOCH":"2026-02-27T05:45:06.333696","MEAN_MOTION":13.16593133,"ECCENTRICITY":0.00018411,"INCLINATION":87.9001,"RA_OF_ASC_NODE":250.6453,"ARG_OF_PERICENTER":76.5752,"MEAN_ANOMALY":283.5584,"EPHEMERIS_TYPE":0,"CLASSIFICATION_TYPE":"U","NORAD_CAT_ID":56057,"ELEMENT_SET_NO":999,"REV_AT_EPOCH":14449,"BSTAR":-0.00029855837,"MEAN_MOTION_DOT":-1.01e-6,"MEAN_MOTION_DDOT":0},{"OBJECT_NAME":"ONEWEB-0557","OBJECT_ID":"2023-043N","EPOCH":"2026-02-26T11:51:15.520896","MEAN_MOTION":13.16592258,"ECCENTRICITY":0.0001307,"INCLINATION":87.9004,"RA_OF_ASC_NODE":250.8057,"ARG_OF_PERICENTER":40.2792,"MEAN_ANOMALY":319.8436,"EPHEMERIS_TYPE":0,"CLASSIFICATION_TYPE":"U","NORAD_CAT_ID":56058,"ELEMENT_SET_NO":999,"REV_AT_EPOCH":14439,"BSTAR":-0.00014518,"MEAN_MOTION_DOT":-4.3e-7,"MEAN_MOTION_DDOT":0},{"OBJECT_NAME":"ONEWEB-0558","OBJECT_ID":"2023-043P","EPOCH":"2026-02-27T01:53:06.065952","MEAN_MOTION":13.21825261,"ECCENTRICITY":0.00020159,"INCLINATION":87.9175,"RA_OF_ASC_NODE":265.9408,"ARG_OF_PERICENTER":99.805,"MEAN_ANOMALY":260.3312,"EPHEMERIS_TYPE":0,"CLASSIFICATION_TYPE":"U","NORAD_CAT_ID":56059,"ELEMENT_SET_NO":999,"REV_AT_EPOCH":14369,"BSTAR":0.00025382539,"MEAN_MOTION_DOT":1.18e-6,"MEAN_MOTION_DDOT":0},{"OBJECT_NAME":"ONEWEB-0559","OBJECT_ID":"2023-043Q","EPOCH":"2026-02-27T01:36:29.868768","MEAN_MOTION":13.2182751,"ECCENTRICITY":0.00016289,"INCLINATION":87.9165,"RA_OF_ASC_NODE":265.9368,"ARG_OF_PERICENTER":101.2804,"MEAN_ANOMALY":258.8513,"EPHEMERIS_TYPE":0,"CLASSIFICATION_TYPE":"U","NORAD_CAT_ID":56060,"ELEMENT_SET_NO":999,"REV_AT_EPOCH":14370,"BSTAR":0.00039727504,"MEAN_MOTION_DOT":1.77e-6,"MEAN_MOTION_DDOT":0},{"OBJECT_NAME":"ONEWEB-0566","OBJECT_ID":"2023-043R","EPOCH":"2026-02-27T01:27:02.355552","MEAN_MOTION":13.21825908,"ECCENTRICITY":0.00017454,"INCLINATION":87.9175,"RA_OF_ASC_NODE":265.9378,"ARG_OF_PERICENTER":100.5253,"MEAN_ANOMALY":259.6078,"EPHEMERIS_TYPE":0,"CLASSIFICATION_TYPE":"U","NORAD_CAT_ID":56061,"ELEMENT_SET_NO":999,"REV_AT_EPOCH":14368,"BSTAR":0.00024536853,"MEAN_MOTION_DOT":1.14e-6,"MEAN_MOTION_DDOT":0},{"OBJECT_NAME":"ONEWEB-0568","OBJECT_ID":"2023-043S","EPOCH":"2026-02-27T01:02:23.627328","MEAN_MOTION":13.1659213,"ECCENTRICITY":0.00017243,"INCLINATION":87.9,"RA_OF_ASC_NODE":250.6856,"ARG_OF_PERICENTER":82.7901,"MEAN_ANOMALY":277.3426,"EPHEMERIS_TYPE":0,"CLASSIFICATION_TYPE":"U","NORAD_CAT_ID":56062,"ELEMENT_SET_NO":999,"REV_AT_EPOCH":14448,"BSTAR":8.9543945e-5,"MEAN_MOTION_DOT":4.7e-7,"MEAN_MOTION_DDOT":0},{"OBJECT_NAME":"ONEWEB-0574","OBJECT_ID":"2023-043T","EPOCH":"2026-02-27T06:44:33.928800","MEAN_MOTION":13.21824418,"ECCENTRICITY":0.00014374,"INCLINATION":87.9181,"RA_OF_ASC_NODE":265.8849,"ARG_OF_PERICENTER":84.5875,"MEAN_ANOMALY":275.5423,"EPHEMERIS_TYPE":0,"CLASSIFICATION_TYPE":"U","NORAD_CAT_ID":56063,"ELEMENT_SET_NO":999,"REV_AT_EPOCH":14375,"BSTAR":0.00010923536,"MEAN_MOTION_DOT":5.8e-7,"MEAN_MOTION_DDOT":0},{"OBJECT_NAME":"ONEWEB-0575","OBJECT_ID":"2023-043U","EPOCH":"2026-02-27T00:53:16.178784","MEAN_MOTION":13.16592985,"ECCENTRICITY":0.00013401,"INCLINATION":87.9005,"RA_OF_ASC_NODE":250.685,"ARG_OF_PERICENTER":75.9848,"MEAN_ANOMALY":284.1432,"EPHEMERIS_TYPE":0,"CLASSIFICATION_TYPE":"U","NORAD_CAT_ID":56064,"ELEMENT_SET_NO":999,"REV_AT_EPOCH":14447,"BSTAR":7.2461418e-5,"MEAN_MOTION_DOT":4.1e-7,"MEAN_MOTION_DDOT":0},{"OBJECT_NAME":"ONEWEB-0576","OBJECT_ID":"2023-043V","EPOCH":"2026-02-26T11:39:51.791040","MEAN_MOTION":13.16592471,"ECCENTRICITY":0.0001444,"INCLINATION":87.9005,"RA_OF_ASC_NODE":250.7986,"ARG_OF_PERICENTER":84.5762,"MEAN_ANOMALY":275.5534,"EPHEMERIS_TYPE":0,"CLASSIFICATION_TYPE":"U","NORAD_CAT_ID":56065,"ELEMENT_SET_NO":999,"REV_AT_EPOCH":14439,"BSTAR":-0.00010831,"MEAN_MOTION_DOT":-2.9e-7,"MEAN_MOTION_DDOT":0},{"OBJECT_NAME":"ONEWEB-0577","OBJECT_ID":"2023-043W","EPOCH":"2026-02-27T06:03:20.400480","MEAN_MOTION":13.16592366,"ECCENTRICITY":9.896e-5,"INCLINATION":87.9003,"RA_OF_ASC_NODE":250.6446,"ARG_OF_PERICENTER":69.3038,"MEAN_ANOMALY":290.8199,"EPHEMERIS_TYPE":0,"CLASSIFICATION_TYPE":"U","NORAD_CAT_ID":56066,"ELEMENT_SET_NO":999,"REV_AT_EPOCH":14452,"BSTAR":-0.00016386123,"MEAN_MOTION_DOT":-5.0e-7,"MEAN_MOTION_DDOT":0},{"OBJECT_NAME":"ONEWEB-0578","OBJECT_ID":"2023-043X","EPOCH":"2026-02-27T02:47:35.451456","MEAN_MOTION":13.21826701,"ECCENTRICITY":0.00017878,"INCLINATION":87.9168,"RA_OF_ASC_NODE":265.9255,"ARG_OF_PERICENTER":82.2196,"MEAN_ANOMALY":277.9141,"EPHEMERIS_TYPE":0,"CLASSIFICATION_TYPE":"U","NORAD_CAT_ID":56067,"ELEMENT_SET_NO":999,"REV_AT_EPOCH":14369,"BSTAR":3.8572946e-5,"MEAN_MOTION_DOT":2.9e-7,"MEAN_MOTION_DDOT":0}]
