ONEWEB-0549             
1 56051U 23043F   26058.10323598 -.00000062  00000+0 -18117-3 0  9991
2 56051  87.9169 265.9396 0001776  93.1196 267.0141 13.21825155143685
ONEWEB-0550             
1 56052U 23043G   26057.56016686 -.00000010  00000+0 -54616-4 0  9996
2 56052  87.9167 266.0437 0001507  86.7095 273.4211 13.21827271143613
ONEWEB-0551             
1 56053U 23043H   26058.10027832 -.00000005  00000+0 -46195-4 0  9990
2 56053  87.8948 281.2110 0001827  94.1236 266.0103 13.15547756141922
ONEWEB-0552             
1 56054U 23043J   26058.08512748  .00000063  00000+0  12215-3 0  9990
2 56054  87.9166 265.9479 0001504  91.8931 268.2375 13.21824971143685
ONEWEB-0553             
1 56055U 23043K   26058.06232576  .00000041  00000+0  73971-4 0  9990
2 56055  87.9001 250.6856 0001663  79.0114 281.1204 13.16592767144484
ONEWEB-0554             
1 56056U 23043L   26058.04965740  .00000085  00000+0  18787-3 0  9996
2 56056  87.9001 250.6982 0001296  86.4075 273.7204 13.16592953144467
ONEWEB-0555             
1 56057U 23043M   26058.23965664 -.00000101  00000+0 -29856-3 0  9993
2 56057  87.9001 250.6453 0001841  76.5752 283.5584 13.16593133144493
ONEWEB-0557             
1 56058U 23043N   26057.49392964 -.00000043  00000+0 -14518-3 0  9992
2 56058  87.9004 250.8057 0001307  40.2792 319.8436 13.16592258144393
ONEWEB-0558             
1 56059U 23043P   26058.07854243  .00000118  00000+0  25383-3 0  9994
2 56059  87.9175 265.9408 0002015  99.8050 260.3312 13.21825261143698
ONEWEB-0559             
1 56060U 23043Q   26058.06701237  .00000177  00000+0  39728-3 0  9992
2 56060  87.9165 265.9368 0001628 101.2804 258.8513 13.21827510143704
ONEWEB-0566             
1 56061U 23043R   26058.06044393  .00000114  00000+0  24537-3 0  9999
2 56061  87.9175 265.9378 0001745 100.5253 259.6078 13.21825908143688
ONEWEB-0568             
1 56062U 23043S   26058.04332902  .00000047  00000+0  89544-4 0  9999
2 56062  87.9000 250.6856 0001724  82.7901 277.3426 13.16592130144481
ONEWEB-0574             
1 56063U 23043T   26058.28094825  .00000058  00000+0  10924-3 0  9992
2 56063  87.9181 265.8849 0001437  84.5875 275.5423 13.21824418143752
ONEWEB-0575             
1 56064U 23043U   26058.03699281  .00000041  00000+0  72461-4 0  9990
2 56064  87.9005 250.6850 0001340  75.9848 284.1432 13.16592985144470
ONEWEB-0576             
1 56065U 23043V   26057.48601610 -.00000029  00000+0 -10831-3 0  9998
2 56065  87.9005 250.7986 0001444  84.5762 275.5534 13.16592471144396
ONEWEB-0577             
1 56066U 23043W   26058.25231945 -.00000050  00000+0 -16386-3 0  9990
2 56066  87.9003 250.6446 0000989  69.3038 290.8199 13.16592366144520
ONEWEB-0578             
1 56067U 23043X   26058.11638254  .00000029  00000+0  38573-4 0  9997
2 56067  87.9168 265.9255 0001787  82.2196 277.9141 13.21826701143695
